STARLINK-1316
1 15415C 20019BH  21326.16735676  .00000242  00000-0  16199-4 0  3268
2 15415  53.0526 337.9854 0001700  54.4466 235.9164 15.06396621    18
